HAWK-11C                
1 62381U 24247E   26068.51221537  .00009223  00000+0  33290-3 0  9992
2 62381  45.0045 114.8762 0005900 329.7040  30.3502 15.28848020 67743
STARLINK-34320          
1 64217U 25117Q   26068.31041817  .00024513  00000+0  83722-3 0  9992
2 64217  53.1616  41.6498 0001319  84.6365 275.4786 15.30191900 44468
